STARLINK-37279          
1 68768U 26086C   26117.56542537 -.00494833  83003-4 -13182-2 0  9999
2 68768  97.2799 152.9859 0002589  19.1045 341.0327 15.94499226  1184
