{
  "norad_id": 68768,
  "name": "STARLINK-37279",
  "history": [
    {
      "epoch": "2026-04-27T13:34:12.751968Z",
      "apogee_km": 291.4364772659601,
      "perigee_km": 287.98373267806437,
      "latitude_deg": -1.2729040884691606e-05,
      "longitude_deg": 93.87935770383449,
      "height_km": 291.2714391633248,
      "semi_major_axis_km": 6667.847104972012,
      "eccentricity": 0.00025891,
      "inclination_deg": 97.2799,
      "raan_deg": 152.9859,
      "arg_perigee_deg": 19.1045,
      "mean_anomaly_deg": 341.0327,
      "mean_motion_rev_day": 15.94499226
    }
  ]
}